{
  "norad_id": 62447,
  "name": "STARLINK-32730",
  "history": [
    {
      "epoch": "2026-03-28T17:05:44.347776Z",
      "apogee_km": 475.6812554524731,
      "perigee_km": 474.6614831671204,
      "latitude_deg": 1.124963437071672e-05,
      "longitude_deg": 164.17929664261862,
      "height_km": 475.9345724614653,
      "semi_major_axis_km": 6853.308369309797,
      "eccentricity": 7.44e-05,
      "inclination_deg": 53.1579,
      "raan_deg": 246.7429,
      "arg_perigee_deg": 74.6016,
      "mean_anomaly_deg": 285.5067,
      "mean_motion_rev_day": 15.30214636
    },
    {
      "epoch": "2026-03-29T21:18:41.852160Z",
      "apogee_km": 475.87180985890063,
      "perigee_km": 474.492922002476,
      "latitude_deg": 1.8226158874560996e-06,
      "longitude_deg": 94.31829950419292,
      "height_km": 476.0894885123876,
      "semi_major_axis_km": 6853.319365930688,
      "eccentricity": 0.0001006,
      "inclination_deg": 53.1585,
      "raan_deg": 241.2803,
      "arg_perigee_deg": 90.7353,
      "mean_anomaly_deg": 269.3763,
      "mean_motion_rev_day": 15.30210953
    },
    {
      "epoch": "2026-03-29T21:18:41.853024Z",
      "apogee_km": 475.87208399167594,
      "perigee_km": 474.4926478697007,
      "latitude_deg": -1.8680587933382792e-06,
      "longitude_deg": 94.31829314447889,
      "height_km": 476.08949203033006,
      "semi_major_axis_km": 6853.319365930688,
      "eccentricity": 0.00010064,
      "inclination_deg": 53.1585,
      "raan_deg": 241.2803,
      "arg_perigee_deg": 90.7353,
      "mean_anomaly_deg": 269.3763,
      "mean_motion_rev_day": 15.30210953
    },
    {
      "epoch": "2026-03-30T09:51:07.584480Z",
      "apogee_km": 475.9494784855815,
      "perigee_km": 474.3344347666625,
      "latitude_deg": 6.680812248645082e-05,
      "longitude_deg": -96.73098880845514,
      "height_km": 476.19819690254053,
      "semi_major_axis_km": 6853.278956626122,
      "eccentricity": 0.00011783,
      "inclination_deg": 53.1591,
      "raan_deg": 238.8532,
      "arg_perigee_deg": 101.2912,
      "mean_anomaly_deg": 258.8222,
      "mean_motion_rev_day": 15.30224487
    },
    {
      "epoch": "2026-03-30T19:15:26.958240Z",
      "apogee_km": 475.72861579853816,
      "perigee_km": 474.68827795970265,
      "latitude_deg": 1.1339635760773213e-06,
      "longitude_deg": 119.9831734158782,
      "height_km": 475.837295309742,
      "semi_major_axis_km": 6853.345446879121,
      "eccentricity": 7.59e-05,
      "inclination_deg": 53.1593,
      "raan_deg": 237.0344,
      "arg_perigee_deg": 58.7329,
      "mean_anomaly_deg": 301.3746,
      "mean_motion_rev_day": 15.30202218
    },
    {
      "epoch": "2026-03-31T15:38:10.564224Z",
      "apogee_km": 476.3564951637982,
      "perigee_km": 474.1894469309527,
      "latitude_deg": 3.229415840770898e-05,
      "longitude_deg": 169.5189794436726,
      "height_km": 476.3765693512957,
      "semi_major_axis_km": 6853.409971047376,
      "eccentricity": 0.0001581,
      "inclination_deg": 53.1579,
      "raan_deg": 233.0888,
      "arg_perigee_deg": 100.9683,
      "mean_anomaly_deg": 259.1496,
      "mean_motion_rev_day": 15.30180608
    },
    {
      "epoch": "2026-04-01T02:36:32.956992Z",
      "apogee_km": 476.17195619987433,
      "perigee_km": 474.2125893607854,
      "latitude_deg": -3.1351525451331384e-05,
      "longitude_deg": 2.351488992783694,
      "height_km": 476.2051418144025,
      "semi_major_axis_km": 6853.329272780329,
      "eccentricity": 0.00014295,
      "inclination_deg": 53.1573,
      "raan_deg": 230.9653,
      "arg_perigee_deg": 96.758,
      "mean_anomaly_deg": 263.3583,
      "mean_motion_rev_day": 15.30207635
    },
    {
      "epoch": "2026-04-02T17:47:52.148256Z",
      "apogee_km": 475.9959213338707,
      "perigee_km": 474.3004185828231,
      "latitude_deg": 3.2057863409267986e-05,
      "longitude_deg": 125.32755300327771,
      "height_km": 475.91045395113076,
      "semi_major_axis_km": 6853.285169958346,
      "eccentricity": 0.0001237,
      "inclination_deg": 53.159,
      "raan_deg": 223.3807,
      "arg_perigee_deg": 80.7851,
      "mean_anomaly_deg": 279.329,
      "mean_motion_rev_day": 15.30222406
    },
    {
      "epoch": "2026-04-02T17:47:52.149120Z",
      "apogee_km": 475.99557866961095,
      "perigee_km": 474.300761247081,
      "latitude_deg": 3.661094853216372e-05,
      "longitude_deg": 125.32755278578487,
      "height_km": 475.91050882398673,
      "semi_major_axis_km": 6853.285169958346,
      "eccentricity": 0.00012365,
      "inclination_deg": 53.159,
      "raan_deg": 223.3807,
      "arg_perigee_deg": 80.7851,
      "mean_anomaly_deg": 279.329,
      "mean_motion_rev_day": 15.30222406
    },
    {
      "epoch": "2026-04-03T17:18:39.211488Z",
      "apogee_km": 475.91037107142347,
      "perigee_km": 474.5218817280147,
      "latitude_deg": 4.2155017181799696e-05,
      "longitude_deg": 127.11541625322887,
      "height_km": 475.6982537757865,
      "semi_major_axis_km": 6853.353126399718,
      "eccentricity": 0.0001013,
      "inclination_deg": 53.1582,
      "raan_deg": 218.8303,
      "arg_perigee_deg": 53.1482,
      "mean_anomaly_deg": 306.9612,
      "mean_motion_rev_day": 15.30199646
    },
    {
      "epoch": "2026-04-04T13:41:20.292000Z",
      "apogee_km": 476.3201881623845,
      "perigee_km": 474.2052290123147,
      "latitude_deg": 5.338017508954626e-05,
      "longitude_deg": 176.66365733190318,
      "height_km": 475.21795593048074,
      "semi_major_axis_km": 6853.39970858735,
      "eccentricity": 0.0001543,
      "inclination_deg": 53.158,
      "raan_deg": 214.8866,
      "arg_perigee_deg": 26.8614,
      "mean_anomaly_deg": 333.2467,
      "mean_motion_rev_day": 15.30184045
    },
    {
      "epoch": "2026-04-05T14:46:03.729216Z",
      "apogee_km": 474.60664447133513,
      "perigee_km": 472.6908851714916,
      "latitude_deg": -6.907555648790147e-06,
      "longitude_deg": 154.5981755526,
      "height_km": 473.63109969348795,
      "semi_major_axis_km": 6851.785764821413,
      "eccentricity": 0.0001398,
      "inclination_deg": 53.1574,
      "raan_deg": 210.0321,
      "arg_perigee_deg": 16.8369,
      "mean_anomaly_deg": 343.2678,
      "mean_motion_rev_day": 15.30724731
    },
    {
      "epoch": "2026-04-06T06:25:24.967776Z",
      "apogee_km": 468.44287580096443,
      "perigee_km": 466.68626877751467,
      "latitude_deg": 1.5945425255533723e-05,
      "longitude_deg": -83.92226772266753,
      "height_km": 467.9489904408803,
      "semi_major_axis_km": 6845.701572289239,
      "eccentricity": 0.0001283,
      "inclination_deg": 53.1581,
      "raan_deg": 206.9931,
      "arg_perigee_deg": 54.1193,
      "mean_anomaly_deg": 305.9928,
      "mean_motion_rev_day": 15.32765857
    },
    {
      "epoch": "2026-04-07T14:00:01.999872Z",
      "apogee_km": 459.58082019446647,
      "perigee_km": 456.822084175471,
      "latitude_deg": 50.47274303783367,
      "longitude_deg": -140.47672506606898,
      "height_km": 462.7483724932534,
      "semi_major_axis_km": 6836.338452184968,
      "eccentricity": 0.00020177,
      "inclination_deg": 53.1592,
      "raan_deg": 200.8412,
      "arg_perigee_deg": 72.941,
      "mean_anomaly_deg": 1.1499,
      "mean_motion_rev_day": 15.35915873
    },
    {
      "epoch": "2026-04-07T20:00:00.999360Z",
      "apogee_km": 458.59990192726855,
      "perigee_km": 456.3414171565555,
      "latitude_deg": 13.726053127689935,
      "longitude_deg": 74.04604535666428,
      "height_km": 456.8845475774369,
      "semi_major_axis_km": 6835.607659541912,
      "eccentricity": 0.0001652,
      "inclination_deg": 53.159,
      "raan_deg": 199.6694,
      "arg_perigee_deg": 66.2994,
      "mean_anomaly_deg": 310.9547,
      "mean_motion_rev_day": 15.36162186
    },
    {
      "epoch": "2026-04-08T14:00:04.999680Z",
      "apogee_km": 456.35158901904197,
      "perigee_km": 454.15274105351637,
      "latitude_deg": -22.7060148197875,
      "longitude_deg": -12.547969017960458,
      "height_km": 462.5281477532611,
      "semi_major_axis_km": 6833.389165036278,
      "eccentricity": 0.00016089,
      "inclination_deg": 53.1596,
      "raan_deg": 196.1519,
      "arg_perigee_deg": 71.0288,
      "mean_anomaly_deg": 137.5442,
      "mean_motion_rev_day": 15.36910331
    },
    {
      "epoch": "2026-04-09T20:00:01.999008Z",
      "apogee_km": 447.5722661692089,
      "perigee_km": 445.968412944414,
      "latitude_deg": -47.45061500226,
      "longitude_deg": -2.0674648697155495,
      "height_km": 463.58923590725243,
      "semi_major_axis_km": 6824.907339556811,
      "eccentricity": 0.0001175,
      "inclination_deg": 53.1597,
      "raan_deg": 190.276,
      "arg_perigee_deg": 71.2497,
      "mean_anomaly_deg": 222.1517,
      "mean_motion_rev_day": 15.39776272
    },
    {
      "epoch": "2026-04-10T06:00:00.999648Z",
      "apogee_km": 445.23364142623905,
      "perigee_km": 443.2561058163501,
      "latitude_deg": 53.05714209747975,
      "longitude_deg": -17.99757322138856,
      "height_km": 449.767830090277,
      "semi_major_axis_km": 6822.381873621294,
      "eccentricity": 0.00014493,
      "inclination_deg": 53.1608,
      "raan_deg": 188.3088,
      "arg_perigee_deg": 85.7047,
      "mean_anomaly_deg": 359.5961,
      "mean_motion_rev_day": 15.40631328
    },
    {
      "epoch": "2026-04-11T20:00:01.000224Z",
      "apogee_km": 434.57014225502735,
      "perigee_km": 432.4217532233106,
      "latitude_deg": -45.14403764004088,
      "longitude_deg": -90.74591314691008,
      "height_km": 449.8064282746298,
      "semi_major_axis_km": 6811.632947739169,
      "eccentricity": 0.0001577,
      "inclination_deg": 53.1595,
      "raan_deg": 180.819,
      "arg_perigee_deg": 79.0293,
      "mean_anomaly_deg": 162.9477,
      "mean_motion_rev_day": 15.44279498
    }
  ]
}